[{"OBJECT_NAME":"YAOGAN-43 01D","OBJECT_ID":"2024-148D","EPOCH":"2026-03-09T10:27:16.254720","MEAN_MOTION":15.28369377,"ECCENTRICITY":0.00025569,"INCLINATION":35.001,"RA_OF_ASC_NODE":61.7102,"ARG_OF_PERICENTER":326.2473,"MEAN_ANOMALY":33.808,"EPHEMERIS_TYPE":0,"CLASSIFICATION_TYPE":"U","NORAD_CAT_ID":60461,"ELEMENT_SET_NO":999,"REV_AT_EPOCH":8700,"BSTAR":0.00037765912,"MEAN_MOTION_DOT":0.00010676,"MEAN_MOTION_DDOT":0},{"OBJECT_NAME":"STARLINK-34040","OBJECT_ID":"2025-093D","EPOCH":"2026-03-09T10:21:55.365120","MEAN_MOTION":15.27581833,"ECCENTRICITY":0.00011682,"INCLINATION":43.0021,"RA_OF_ASC_NODE":79.2819,"ARG_OF_PERICENTER":264.7212,"MEAN_ANOMALY":95.3506,"EPHEMERIS_TYPE":0,"CLASSIFICATION_TYPE":"U","NORAD_CAT_ID":63839,"ELEMENT_SET_NO":999,"REV_AT_EPOCH":4793,"BSTAR":0.0010300341,"MEAN_MOTION_DOT":0.00028192,"MEAN_MOTION_DDOT":0}]
